start=new Date('2022-06-03T00:00:00.000Z').valueOf();
sats=[{"SITE":"AFETR","EPHEMERIS_TYPE":"0","FILE":"3476646","ELEMENT_SET_NO":"999","REV_AT_EPOCH":"6073","MEAN_MOTION":"15.06419486","GP_ID":"205136886","BSTAR":"-0.00209230000000","MEAN_MOTION_DOT":"-0.00031326","COUNTRY_CODE":"US","PERIOD":"95.591","INCLINATION":"53.0523","TLE_LINE1":"1 48430U 21040C   22152.83334491 -.00031326  00000-0 -20923-2 0  9998","ECCENTRICITY":"0.00014040","MEAN_ANOMALY":"333.7326","CENTER_NAME":"EARTH","EPOCH":"2022-06-01T20:00:01.000224","NORAD_CAT_ID":"48430","TLE_LINE2":"2 48430  53.0523 217.5737 0001404  56.1922 333.7326 15.06419486 60732","OBJECT_ID":"2021-040C","REF_FRAME":"TEME","RA_OF_ASC_NODE":"217.5737","OBJECT_NAME":"STARLINK-2729","LAUNCH_DATE":"2021-05-09","RCS_SIZE":"LARGE","CLASSIFICATION_TYPE":"U","SEMIMAJOR_AXIS":"6925.289","APOAPSIS":"548.126","PERIAPSIS":"546.182","TIME_SYSTEM":"UTC","OBJECT_TYPE":"PAYLOAD","DECAY_DATE":null,"MEAN_MOTION_DDOT":"0.0000000000000","MEAN_ELEMENT_THEORY":"SGP4","ARG_OF_PERICENTER":"56.1922"},{"PERIAPSIS":"546.191","APOAPSIS":"548.242","LAUNCH_DATE":"2021-05-09","RCS_SIZE":"LARGE","SEMIMAJOR_AXIS":"6925.351","CLASSIFICATION_TYPE":"U","ARG_OF_PERICENTER":"65.0461","MEAN_ELEMENT_THEORY":"SGP4","DECAY_DATE":null,"OBJECT_TYPE":"PAYLOAD","MEAN_MOTION_DDOT":"0.0000000000000","TIME_SYSTEM":"UTC","EPOCH":"2022-06-02T18:28:53.425056","CENTER_NAME":"EARTH","ECCENTRICITY":"0.00014810","MEAN_ANOMALY":"295.0682","OBJECT_NAME":"STARLINK-2700","RA_OF_ASC_NODE":"208.3636","OBJECT_ID":"2021-040D","REF_FRAME":"TEME","NORAD_CAT_ID":"48431","TLE_LINE2":"2 48431  53.0552 208.3636 0001481  65.0461 295.0682 15.06399054 59666","BSTAR":"0.00002507300000","GP_ID":"205212139","MEAN_MOTION":"15.06399054","TLE_LINE1":"1 48431U 21040D   22153.77006279  .00000092  00000-0  25073-4 0  9990","INCLINATION":"53.0552","PERIOD":"95.592","COUNTRY_CODE":"US","MEAN_MOTION_DOT":"0.00000092","ELEMENT_SET_NO":"999","FILE":"3477983","EPHEMERIS_TYPE":"0","SITE":"AFETR","REV_AT_EPOCH":"5966"},{"REV_AT_EPOCH":"5974","ELEMENT_SET_NO":"999","EPHEMERIS_TYPE":"0","SITE":"AFETR","FILE":"3477983","INCLINATION":"53.0540","TLE_LINE1":"1 48432U 21040E   22153.86771852  .00001609  00000-0  13503-3 0  9996","MEAN_MOTION_DOT":"0.00001609","PERIOD":"95.747","COUNTRY_CODE":"US","MEAN_MOTION":"15.03961978","GP_ID":"205212387","BSTAR":"0.00013503000000","REF_FRAME":"TEME","OBJECT_ID":"2021-040E","RA_OF_ASC_NODE":"203.1512","OBJECT_NAME":"STARLINK-2680","TLE_LINE2":"2 48432  53.0540 203.1512 0001275  93.8300 266.2833 15.03961978 59746","NORAD_CAT_ID":"48432","EPOCH":"2022-06-02T20:49:30.880128","CENTER_NAME":"EARTH","ECCENTRICITY":"0.00012750","MEAN_ANOMALY":"266.2833","ARG_OF_PERICENTER":"93.8300","MEAN_ELEMENT_THEORY":"SGP4","DECAY_DATE":null,"OBJECT_TYPE":"PAYLOAD","MEAN_MOTION_DDOT":"0.0000000000000","TIME_SYSTEM":"UTC","PERIAPSIS":"553.812","LAUNCH_DATE":"2021-05-09","RCS_SIZE":"LARGE","SEMIMAJOR_AXIS":"6932.831","CLASSIFICATION_TYPE":"U","APOAPSIS":"555.580"},{"NORAD_CAT_ID":"48433","TLE_LINE2":"2 48433  53.0549 209.2695 0002300  68.2954 291.8280 15.06217329 59631","RA_OF_ASC_NODE":"209.2695","OBJECT_NAME":"STARLINK-2699","OBJECT_ID":"2021-040F","REF_FRAME":"TEME","ECCENTRICITY":"0.00023000","MEAN_ANOMALY":"291.8280","EPOCH":"2022-06-02T15:08:38.968512","CENTER_NAME":"EARTH","TIME_SYSTEM":"UTC","ARG_OF_PERICENTER":"68.2954","MEAN_ELEMENT_THEORY":"SGP4","MEAN_MOTION_DDOT":"0.0000000000000","DECAY_DATE":null,"OBJECT_TYPE":"PAYLOAD","APOAPSIS":"549.366","SEMIMAJOR_AXIS":"6925.908","LAUNCH_DATE":"2021-05-09","RCS_SIZE":"LARGE","CLASSIFICATION_TYPE":"U","PERIAPSIS":"546.181","REV_AT_EPOCH":"5963","FILE":"3477983","EPHEMERIS_TYPE":"0","SITE":"AFETR","ELEMENT_SET_NO":"999","PERIOD":"95.604","COUNTRY_CODE":"US","MEAN_MOTION_DOT":"0.00035663","TLE_LINE1":"1 48433U 21040F   22153.63100658  .00035663  00000-0  24128-2 0  9993","INCLINATION":"53.0549","BSTAR":"0.00241280000000","GP_ID":"205210637","MEAN_MOTION":"15.06217329"},{"MEAN_MOTION":"15.03945080","BSTAR":"-0.00014625000000","GP_ID":"205210887","MEAN_MOTION_DOT":"-0.00002314","COUNTRY_CODE":"US","PERIOD":"95.748","INCLINATION":"53.0544","TLE_LINE1":"1 48434U 21040G   22153.85364214 -.00002314  00000-0 -14625-3 0  9999","EPHEMERIS_TYPE":"0","SITE":"AFETR","FILE":"3477983","ELEMENT_SET_NO":"999","REV_AT_EPOCH":"5960","LAUNCH_DATE":"2021-05-09","SEMIMAJOR_AXIS":"6932.883","RCS_SIZE":"LARGE","CLASSIFICATION_TYPE":"U","APOAPSIS":"555.727","PERIAPSIS":"553.769","TIME_SYSTEM":"UTC","DECAY_DATE":null,"OBJECT_TYPE":"PAYLOAD","MEAN_MOTION_DDOT":"0.0000000000000","ARG_OF_PERICENTER":"72.5135","MEAN_ELEMENT_THEORY":"SGP4","ECCENTRICITY":"0.00014120","MEAN_ANOMALY":"287.6007","CENTER_NAME":"EARTH","EPOCH":"2022-06-02T20:29:14.680896","TLE_LINE2":"2 48434  53.0544 213.4244 0001412  72.5135 287.6007 15.03945080 59602","NORAD_CAT_ID":"48434","REF_FRAME":"TEME","OBJECT_ID":"2021-040G","RA_OF_ASC_NODE":"213.4244","OBJECT_NAME":"STARLINK-2692"},{"BSTAR":"-0.00470860000000","GP_ID":"205211639","MEAN_MOTION":"15.05796692","COUNTRY_CODE":"US","PERIOD":"95.630","MEAN_MOTION_DOT":"-0.00068622","TLE_LINE1":"1 48435U 21040H   22153.86708697 -.00068622  00000-0 -47086-2 0  9998","INCLINATION":"53.0544","FILE":"3477983","SITE":"AFETR","EPHEMERIS_TYPE":"0","ELEMENT_SET_NO":"999","REV_AT_EPOCH":"5946","APOAPSIS":"550.468","LAUNCH_DATE":"2021-05-09","RCS_SIZE":"LARGE","SEMIMAJOR_AXIS":"6927.198","CLASSIFICATION_TYPE":"U","PERIAPSIS":"547.658","TIME_SYSTEM":"UTC","DECAY_DATE":null,"MEAN_MOTION_DDOT":"0.0000000000000","OBJECT_TYPE":"PAYLOAD","ARG_OF_PERICENTER":"48.9846","MEAN_ELEMENT_THEORY":"SGP4","MEAN_ANOMALY":"311.1318","ECCENTRICITY":"0.00020280","CENTER_NAME":"EARTH","EPOCH":"2022-06-02T20:48:36.314208","TLE_LINE2":"2 48435  53.0544 222.9288 0002028  48.9846 311.1318 15.05796692 59463","NORAD_CAT_ID":"48435","OBJECT_NAME":"STARLINK-2633","RA_OF_ASC_NODE":"222.9288","REF_FRAME":"TEME","OBJECT_ID":"2021-040H"},{"ECCENTRICITY":"0.00014690","MEAN_ANOMALY":"292.8331","CENTER_NAME":"EARTH","EPOCH":"2022-06-02T15:47:01.835232","TLE_LINE2":"2 48436  53.0552 238.8645 0001469  67.2813 292.8331 15.06398326 59229","NORAD_CAT_ID":"48436","OBJECT_ID":"2021-040J","REF_FRAME":"TEME","OBJECT_NAME":"STARLINK-2639","RA_OF_ASC_NODE":"238.8645","LAUNCH_DATE":"2021-05-09","RCS_SIZE":"LARGE","SEMIMAJOR_AXIS":"6925.354","CLASSIFICATION_TYPE":"U","APOAPSIS":"548.236","PERIAPSIS":"546.201","TIME_SYSTEM":"UTC","MEAN_MOTION_DDOT":"0.0000000000000","DECAY_DATE":null,"OBJECT_TYPE":"PAYLOAD","ARG_OF_PERICENTER":"67.2813","MEAN_ELEMENT_THEORY":"SGP4","EPHEMERIS_TYPE":"0","SITE":"AFETR","FILE":"3477983","ELEMENT_SET_NO":"999","REV_AT_EPOCH":"5922","MEAN_MOTION":"15.06398326","BSTAR":"-0.00004528300000","GP_ID":"205211888","MEAN_MOTION_DOT":"-0.00000956","COUNTRY_CODE":"US","PERIOD":"95.592","INCLINATION":"53.0552","TLE_LINE1":"1 48436U 21040J   22153.65766013 -.00000956  00000-0 -45283-4 0  9997"},{"TIME_SYSTEM":"UTC","ARG_OF_PERICENTER":"39.5836","MEAN_ELEMENT_THEORY":"SGP4","OBJECT_TYPE":"PAYLOAD","DECAY_DATE":null,"MEAN_MOTION_DDOT":"0.0000000000000","RCS_SIZE":"LARGE","LAUNCH_DATE":"2021-05-09","SEMIMAJOR_AXIS":"6925.339","CLASSIFICATION_TYPE":"U","APOAPSIS":"548.301","PERIAPSIS":"546.107","NORAD_CAT_ID":"48437","TLE_LINE2":"2 48437  53.0523 248.9241 0001584  39.5836 320.5268 15.06403272 59086","OBJECT_ID":"2021-040K","REF_FRAME":"TEME","RA_OF_ASC_NODE":"248.9241","OBJECT_NAME":"STARLINK-2642","ECCENTRICITY":"0.00015840","MEAN_ANOMALY":"320.5268","EPOCH":"2022-06-02T15:24:27.913536","CENTER_NAME":"EARTH","MEAN_MOTION_DOT":"0.00001223","PERIOD":"95.592","COUNTRY_CODE":"US","INCLINATION":"53.0523","TLE_LINE1":"1 48437U 21040K   22153.64198974  .00001223  00000-0  10095-3 0  9990","MEAN_MOTION":"15.06403272","BSTAR":"0.00010095000000","GP_ID":"205211138","REV_AT_EPOCH":"5908","EPHEMERIS_TYPE":"0","SITE":"AFETR","FILE":"3477983","ELEMENT_SET_NO":"999"},{"OBJECT_ID":"2021-040L","REF_FRAME":"TEME","OBJECT_NAME":"STARLINK-2640","RA_OF_ASC_NODE":"238.8844","TLE_LINE2":"2 48438  53.0535 238.8844 0002512  26.9863 333.1256 15.06393022 59223","NORAD_CAT_ID":"48438","EPOCH":"2022-06-02T15:41:43.407168","CENTER_NAME":"EARTH","ECCENTRICITY":"0.00025120","MEAN_ANOMALY":"333.1256","ARG_OF_PERICENTER":"26.9863","MEAN_ELEMENT_THEORY":"SGP4","DECAY_DATE":null,"MEAN_MOTION_DDOT":"0.0000000000000","OBJECT_TYPE":"PAYLOAD","TIME_SYSTEM":"UTC","PERIAPSIS":"545.495","RCS_SIZE":"LARGE","LAUNCH_DATE":"2021-05-09","SEMIMAJOR_AXIS":"6925.370","CLASSIFICATION_TYPE":"U","APOAPSIS":"548.975","REV_AT_EPOCH":"5922","ELEMENT_SET_NO":"999","SITE":"AFETR","EPHEMERIS_TYPE":"0","FILE":"3477983","INCLINATION":"53.0535","TLE_LINE1":"1 48438U 21040L   22153.65397462  .00001881  00000-0  14519-3 0  9990","MEAN_MOTION_DOT":"0.00001881","PERIOD":"95.593","COUNTRY_CODE":"US","MEAN_MOTION":"15.06393022","BSTAR":"0.00014519000000","GP_ID":"205211388"},{"BSTAR":"0.00005515100000","GP_ID":"205212140","MEAN_MOTION":"15.06386609","TLE_LINE1":"1 48439U 21040M   22153.71662867  .00000540  00000-0  55151-4 0  9991","INCLINATION":"53.0532","COUNTRY_CODE":"US","PERIOD":"95.593","MEAN_MOTION_DOT":"0.00000540","ELEMENT_SET_NO":"999","FILE":"3477983","EPHEMERIS_TYPE":"0","SITE":"AFETR","REV_AT_EPOCH":"5923","PERIAPSIS":"546.122","APOAPSIS":"548.387","SEMIMAJOR_AXIS":"6925.390","LAUNCH_DATE":"2021-05-09","RCS_SIZE":"LARGE","CLASSIFICATION_TYPE":"U","DECAY_DATE":null,"OBJECT_TYPE":"PAYLOAD","MEAN_MOTION_DDOT":"0.0000000000000","ARG_OF_PERICENTER":"73.6675","MEAN_ELEMENT_THEORY":"SGP4","TIME_SYSTEM":"UTC","CENTER_NAME":"EARTH","EPOCH":"2022-06-02T17:11:56.717088","ECCENTRICITY":"0.00016350","MEAN_ANOMALY":"286.4494","OBJECT_NAME":"STARLINK-2583","RA_OF_ASC_NODE":"238.6097","OBJECT_ID":"2021-040M","REF_FRAME":"TEME","NORAD_CAT_ID":"48439","TLE_LINE2":"2 48439  53.0532 238.6097 0001635  73.6675 286.4494 15.06386609 59232"}];
